[
  {
    "name": "ONEWEB-0432",
    "noradId": "50502",
    "line1": "1 50502U 21132AK  26192.81854631 -.00000012  00000+0 -62221-4 0  9998",
    "line2": "2 50502  87.9193 330.5443 0002366  99.1827 260.9573 13.18685698224821"
  },
  {
    "name": "ONEWEB-0440",
    "noradId": "50503",
    "line1": "1 50503U 21132AL  26192.85576935  .00000007  00000+0 -13845-4 0  9992",
    "line2": "2 50503  87.9196 330.5487 0001608 105.2677 254.8633 13.18687025224828"
  },
  {
    "name": "ONEWEB-0450",
    "noradId": "50504",
    "line1": "1 50504U 21132AM  26192.84916580 -.00000012  00000+0 -62712-4 0  9990",
    "line2": "2 50504  87.9185 330.5524 0001979 102.5179 257.6174 13.18686760224856"
  },
  {
    "name": "ONEWEB-0410",
    "noradId": "51622",
    "line1": "1 51622U 22012A   26192.51684895  .00000021  00000+0  20791-4 0  9994",
    "line2": "2 51622  87.9152   1.0192 0001989  52.8851 307.2462 13.17649907216908"
  },
  {
    "name": "ONEWEB-0411",
    "noradId": "51623",
    "line1": "1 51623U 22012B   26192.60046483 -.00000049  00000+0 -17599-3 0  9993",
    "line2": "2 51623  87.8827  31.4026 0002195  97.6730 262.4647 13.10377731212485"
  },
  {
    "name": "ONEWEB-0415",
    "noradId": "51624",
    "line1": "1 51624U 22012C   26192.59706090 -.00000074  00000+0 -24688-3 0  9994",
    "line2": "2 51624  87.8824  31.4021 0002152  87.2395 272.8979 13.10378278212483"
  },
  {
    "name": "ONEWEB-0416",
    "noradId": "51625",
    "line1": "1 51625U 22012D   26192.60895628  .00000467  00000+0  13018-2 0  9991",
    "line2": "2 51625  87.8816  31.4161 0002219  84.8571 275.2810 13.10376701212528"
  },
  {
    "name": "ONEWEB-0422",
    "noradId": "51626",
    "line1": "1 51626U 22012E   26192.83071419  .00000153  00000+0  35984-3 0  9990",
    "line2": "2 51626  87.9149   0.9569 0001871 113.1896 246.9433 13.17651316217055"
  },
  {
    "name": "ONEWEB-0423",
    "noradId": "51627",
    "line1": "1 51627U 22012F   26192.52022214  .00000040  00000+0  70858-4 0  9991",
    "line2": "2 51627  87.9146   1.0232 0001783  89.1973 270.9363 13.17647911216900"
  },
  {
    "name": "ONEWEB-0425",
    "noradId": "51628",
    "line1": "1 51628U 22012G   26192.54278913  .00000731  00000+0  20569-2 0  9992",
    "line2": "2 51628  87.8816  31.4133 0001869  73.2798 286.8535 13.10374767212514"
  },
  {
    "name": "ONEWEB-0428",
    "noradId": "51629",
    "line1": "1 51629U 22012H   26192.59876160 -.00000095  00000+0 -30791-3 0  9990",
    "line2": "2 51629  87.8811  31.4077 0001750  84.7720 275.3607 13.10377993212481"
  },
  {
    "name": "ONEWEB-0431",
    "noradId": "51630",
    "line1": "1 51630U 22012J   26192.56805405 -.00000295  00000+0 -88219-3 0  9993",
    "line2": "2 51630  87.8814  31.4077 0002335 102.1304 258.0085 13.10369733212536"
  },
  {
    "name": "ONEWEB-0434",
    "noradId": "51631",
    "line1": "1 51631U 22012K   26192.54632009  .00000807  00000+0  22759-2 0  9993",
    "line2": "2 51631  87.8822  31.4385 0001679  66.5508 293.5795 13.10372972212516"
  },
  {
    "name": "ONEWEB-0435",
    "noradId": "51632",
    "line1": "1 51632U 22012L   26192.55295992  .00000526  00000+0  14706-2 0  9992",
    "line2": "2 51632  87.8810  31.4210 0001800  97.7590 262.3741 13.10374075212504"
  },
  {
    "name": "ONEWEB-0436",
    "noradId": "51633",
    "line1": "1 51633U 22012M   26192.51177718 -.00000025  00000+0 -98029-4 0  9992",
    "line2": "2 51633  87.9148   1.0090 0002113 103.0137 257.1231 13.17650309216880"
  },
  {
    "name": "ONEWEB-0438",
    "noradId": "51634",
    "line1": "1 51634U 22012N   26192.53767817  .00000669  00000+0  18808-2 0  9997",
    "line2": "2 51634  87.8821  31.4285 0001865  77.8733 282.2603 13.10376590212534"
  },
  {
    "name": "ONEWEB-0439",
    "noradId": "51635",
    "line1": "1 51635U 22012P   26192.54108109  .00000711  00000+0  20000-2 0  9997",
    "line2": "2 51635  87.8815  31.4147 0001788  84.2810 275.8521 13.10374688212518"
  },
  {
    "name": "ONEWEB-0442",
    "noradId": "51636",
    "line1": "1 51636U 22012Q   26192.50420474  .00000057  00000+0  11469-3 0  9999",
    "line2": "2 51636  87.9144   1.0414 0001956  78.4831 281.6520 13.17650775216878"
  },
  {
    "name": "ONEWEB-0443",
    "noradId": "51637",
    "line1": "1 51637U 22012R   26192.82733392  .00000131  00000+0  30548-3 0  9993",
    "line2": "2 51637  87.9137   0.9769 0001512  93.0944 267.0360 13.17649769216969"
  },
  {
    "name": "ONEWEB-0444",
    "noradId": "51638",
    "line1": "1 51638U 22012S   26192.60724751  .00000344  00000+0  94972-3 0  9996",
    "line2": "2 51638  87.8821  31.4003 0001612  86.9196 273.2115 13.10377273212537"
  },
  {
    "name": "ONEWEB-0445",
    "noradId": "51639",
    "line1": "1 51639U 22012T   26192.55125441  .00000530  00000+0  14814-2 0  9995",
    "line2": "2 51639  87.8825  31.4012 0001930  86.9011 273.2337 13.10374398212532"
  },
  {
    "name": "ONEWEB-0446",
    "noradId": "51640",
    "line1": "1 51640U 22012U   26192.60555359 -.00000158  00000+0 -48792-3 0  9999",
    "line2": "2 51640  87.8864  31.4196 0002278 104.2742 255.8639 13.10351765212524"
  },
  {
    "name": "ONEWEB-0448",
    "noradId": "51641",
    "line1": "1 51641U 22012V   26192.61064422  .00000386  00000+0  10696-2 0  9999",
    "line2": "2 51641  87.8821  31.4119 0001704  88.5354 271.5969 13.10376743212499"
  },
  {
    "name": "ONEWEB-0449",
    "noradId": "51642",
    "line1": "1 51642U 22012W   26192.61572995  .00000535  00000+0  14968-2 0  9991",
    "line2": "2 51642  87.8823  31.3979 0001892  69.0170 291.1159 13.10373593212504"
  },
  {
    "name": "ONEWEB-0451",
    "noradId": "51643",
    "line1": "1 51643U 22012X   26192.50840961  .00000007  00000+0 -16282-4 0  9999",
    "line2": "2 51643  87.9150   1.0065 0001742  85.0683 275.0648 13.17651107216864"
  },
  {
    "name": "ONEWEB-0452",
    "noradId": "51644",
    "line1": "1 51644U 22012Y   26192.50671568  .00000018  00000+0  14200-4 0  9994",
    "line2": "2 51644  87.9127   1.0403 0001296  82.5183 277.6096 13.17647267216874"
  },
  {
    "name": "ONEWEB-0456",
    "noradId": "51646",
    "line1": "1 51646U 22012AA  26192.62419837  .00000582  00000+0  16298-2 0  9991",
    "line2": "2 51646  87.8825  31.3854 0001784  91.0144 269.1188 13.10370430212546"
  },
  {
    "name": "ONEWEB-0457",
    "noradId": "51647",
    "line1": "1 51647U 22012AB  26192.60201606  .00000037  00000+0  70376-4 0  9997",
    "line2": "2 51647  87.8822  31.4063 0002100  79.1191 281.0172 13.10378741212548"
  },
  {
    "name": "ONEWEB-0458",
    "noradId": "51648",
    "line1": "1 51648U 22012AC  26192.62336676  .00000621  00000+0  17435-2 0  9990",
    "line2": "2 51648  87.8821  31.3905 0001691  90.7460 269.3861 13.10371795212506"
  },
  {
    "name": "ONEWEB-0461",
    "noradId": "51649",
    "line1": "1 51649U 22012AD  26192.83240772 -.00000001  00000+0 -34572-4 0  9992",
    "line2": "2 51649  87.9152   0.9561 0001998  91.1598 268.9762 13.17649813217137"
  },
  {
    "name": "ONEWEB-0463",
    "noradId": "51650",
    "line1": "1 51650U 22012AE  26192.51010075  .00000049  00000+0  93552-4 0  9993",
    "line2": "2 51650  87.9144   1.0411 0002162  93.0164 267.1215 13.17650714216876"
  },
  {
    "name": "ONEWEB-0464",
    "noradId": "51651",
    "line1": "1 51651U 22012AF  26192.62082597  .00000676  00000+0  19004-2 0  9998",
    "line2": "2 51651  87.8811  31.4105 0001546  94.7914 265.3390 13.10372193212527"
  },
  {
    "name": "ONEWEB-0468",
    "noradId": "51652",
    "line1": "1 51652U 22012AG  26192.85496911  .00000575  00000+0  16098-2 0  9991",
    "line2": "2 51652  87.8811  31.3579 0001667  93.6944 266.4374 13.10370677212537"
  },
  {
    "name": "ONEWEB-0473",
    "noradId": "51653",
    "line1": "1 51653U 22012AH  26192.61234956  .00000562  00000+0  15725-2 0  9997",
    "line2": "2 51653  87.8815  31.4094 0001871  86.4654 273.6688 13.10375723212502"
  },
  {
    "name": "ONEWEB-0474",
    "noradId": "51654",
    "line1": "1 51654U 22012AJ  26192.60385029  .00000194  00000+0  52005-3 0  9999",
    "line2": "2 51654  87.8828  31.3969 0001524  91.4225 268.7077 13.10376759212497"
  },
  {
    "name": "ONEWEB-0475",
    "noradId": "51655",
    "line1": "1 51655U 22012AK  26192.52191433 -.00000080  00000+0 -24043-3 0  9992",
    "line2": "2 51655  87.9149   1.0318 0001192 106.5670 253.5592 13.17647665216896"
  },
  {
    "name": "ONEWEB-0490",
    "noradId": "54113",
    "line1": "1 54113U 22138A   26192.77504204  .00000019  00000+0  14408-4 0  9999",
    "line2": "2 54113  87.9192 300.0716 0002065 105.4782 254.6579 13.19726352180072"
  },
  {
    "name": "ONEWEB-0492",
    "noradId": "54114",
    "line1": "1 54114U 22138B   26192.80029912  .00000085  00000+0  17872-3 0  9992",
    "line2": "2 54114  87.9187 300.0657 0002087 100.4740 259.6628 13.19727829180085"
  },
  {
    "name": "ONEWEB-0495",
    "noradId": "54115",
    "line1": "1 54115U 22138C   26192.85401916 -.00000001  00000+0 -34444-4 0  9991",
    "line2": "2 54115  87.9185 300.0586 0002137 118.9874 241.1473 13.19726105180072"
  },
  {
    "name": "ONEWEB-0497",
    "noradId": "54116",
    "line1": "1 54116U 22138D   26192.79083977  .00000032  00000+0  48721-4 0  9993",
    "line2": "2 54116  87.9192 300.0645 0002073 102.8671 257.2693 13.19726022180051"
  },
  {
    "name": "ONEWEB-0499",
    "noradId": "54117",
    "line1": "1 54117U 22138E   26192.85006108  .00000020  00000+0  17640-4 0  9995",
    "line2": "2 54117  87.9185 300.0602 0001919 106.3383 253.7960 13.19724177180073"
  },
  {
    "name": "ONEWEB-0500",
    "noradId": "54118",
    "line1": "1 54118U 22138F   26192.85244485 -.00000008  00000+0 -51303-4 0  9990",
    "line2": "2 54118  87.9191 300.0559 0002106  99.4168 260.7203 13.19725637180085"
  },
  {
    "name": "ONEWEB-0501",
    "noradId": "54119",
    "line1": "1 54119U 22138G   26192.80664291  .00000102  00000+0  22189-3 0  9999",
    "line2": "2 54119  87.9198 300.0639 0002085 112.1134 248.0220 13.19725506180054"
  }
]